[{"OBJECT_NAME":"STARLINK-6352","OBJECT_ID":"2023-078R","EPOCH":"2026-03-09T23:30:10.268064","MEAN_MOTION":14.98319389,"ECCENTRICITY":0.00029699,"INCLINATION":69.9997,"RA_OF_ASC_NODE":323.8595,"ARG_OF_PERICENTER":266.4672,"MEAN_ANOMALY":93.6147,"EPHEMERIS_TYPE":0,"CLASSIFICATION_TYPE":"U","NORAD_CAT_ID":56782,"ELEMENT_SET_NO":999,"REV_AT_EPOCH":15321,"BSTAR":5.2158184e-5,"MEAN_MOTION_DOT":5.29e-6,"MEAN_MOTION_DDOT":0},{"OBJECT_NAME":"PEGASUS DEB","OBJECT_ID":"1994-029AGC","EPOCH":"2026-03-05T08:27:18.984384","MEAN_MOTION":14.52218034,"ECCENTRICITY":0.0236757,"INCLINATION":81.9426,"RA_OF_ASC_NODE":296.4283,"ARG_OF_PERICENTER":114.8689,"MEAN_ANOMALY":247.7324,"EPHEMERIS_TYPE":0,"CLASSIFICATION_TYPE":"U","NORAD_CAT_ID":39929,"ELEMENT_SET_NO":999,"REV_AT_EPOCH":61587,"BSTAR":0.0010545,"MEAN_MOTION_DOT":6.215e-5,"MEAN_MOTION_DDOT":0}]
